OBJECT_NAME,OBJECT_ID,EPOCH,MEAN_MOTION,ECCENTRICITY,INCLINATION,RA_OF_ASC_NODE,ARG_OF_PERICENTER,MEAN_ANOMALY,EPHEMERIS_TYPE,CLASSIFICATION_TYPE,NORAD_CAT_ID,ELEMENT_SET_NO,REV_AT_EPOCH,BSTAR,MEAN_MOTION_DOT,MEAN_MOTION_DDOT
KUZGTU 1 (RS47S),2023-091AV,2026-06-03T21:15:39.631104,15.29537269,.00121619,97.5066,219.2334,139.0591,221.1564,0,U,57217,999,16234,.47072955E-3,.13438E-3,0
SONATE-2,2024-043Q,2026-06-03T07:56:58.967520,15.57650064,.00063289,97.5529,303.8894,244.1418,115.9184,0,U,59112,999,12573,.59231034E-3,.43888E-3,0
MESAT1,2024-125G,2026-06-03T15:46:09.429312,15.61704825,.00082975,97.2307,11.8448,258.2487,101.7841,0,U,60209,999,10745,.63848348E-3,.55298E-3,0
OOV-CUBE (TUBSAT-30),2024-128F,2026-06-03T21:07:55.384032,15.02709877,.00462813,61.9958,271.9701,130.8013,229.7107,0,U,60240,999,10411,.23717383E-3,.3041E-4,0
COLIBRI-S (RS67S),2024-199M,2026-06-03T20:53:02.154912,15.47143629,.00072046,97.3007,28.6073,340.1434,19.9534,0,U,61746,999,13535,.48279955E-3,.24469E-3,0
HORS 3 (RS81S),2024-199U,2026-06-03T21:26:26.405952,15.54019002,.00050492,97.2992,30.4775,350.5494,9.5664,0,U,61753,999,13549,.59574452E-3,.38586E-3,0
HORS 4 (RS82S),2024-199V,2026-06-03T21:25:29.225568,15.58399703,.00038162,97.2939,31.5959,343.8970,16.2164,0,U,61754,999,13557,.67889557E-3,.51774E-3,0
ARCTICSAT 1 (RS74S),2024-199AD,2026-06-03T22:02:44.090304,16.00664697,.00056434,97.2855,38.0641,196.6426,163.4669,0,U,61762,999,13599,.12937591E-2,.679456E-2,.21352797E-3
SIT-2086,2024-199AF,2026-06-03T22:04:40.073664,15.52130042,.00050157,97.2950,31.0271,324.4984,35.5935,0,U,61764,999,13237,.61764166E-3,.3737E-3,0
HYPERVIEW 1G (RS66S),2024-199AP,2026-06-03T21:41:11.914368,15.72414696,.00023854,97.2897,33.9846,329.2087,30.9037,0,U,61772,999,13258,.96822578E-3,.130144E-2,0
ALTAIR (RS65S),2024-199AW,2026-06-03T21:28:46.111296,15.36741152,.00125376,97.3039,24.3350,2.7736,357.3576,0,U,61779,999,13507,.29430908E-3,.10512E-3,0
ASRTU-1 (AO-123),2024-199AY,2026-06-03T22:28:48.228384,15.35473924,.00137657,97.3011,23.7277,4.2985,355.8375,0,U,61781,999,13189,.24010762E-3,.8221E-4,0
SAMSAT-IONOSPHERE (RS75S),2024-199BB,2026-06-03T21:13:58.657152,15.56420111,.00069481,97.2960,30.4699,343.4515,16.6512,0,U,61784,999,13549,.70161823E-3,.49731E-3,0
RTU MIREA 1 (RS51S),2024-199BC,2026-06-03T22:29:54.595680,15.59597197,.0006302,97.2948,31.2900,339.3257,20.7743,0,U,61785,999,13240,.79499685E-3,.63573E-3,0
TEVEL2-4,2025-052D,2026-06-02T05:56:32.581248,15.34050425,.00040908,97.3927,49.6197,133.0862,227.0724,0,U,63213,999,6782,.60334383E-3,.19833E-3,0
TEVEL2-5,2025-052E,2026-06-03T15:16:24.127968,15.33944349,.00040387,97.3916,50.9614,130.1667,229.9930,0,U,63214,999,6803,.61020041E-3,.19992E-3,0
TEVEL2-6,2025-052F,2026-06-03T15:33:41.668416,15.33906822,.0004181,97.3918,50.9581,130.1242,230.0368,0,U,63215,999,6803,.61518946E-3,.20133E-3,0
TEVEL2-1,2025-052H,2026-06-02T16:39:16.232832,15.33355434,.0003899,97.3886,49.6443,141.0246,219.1278,0,U,63217,999,6787,.61840095E-3,.19888E-3,0
TEVEL2-3,2025-052J,2026-06-03T05:04:02.160768,15.33427572,.0003877,97.3892,50.1814,141.5958,218.5561,0,U,63218,999,6795,.61001E-3,.19661E-3,0
TEVEL2-2,2025-052K,2026-06-03T14:35:25.625472,15.33398071,.00038147,97.3889,50.5598,141.3336,218.8180,0,U,63219,999,6801,.62040722E-3,.1998E-3,0
TEVEL2-9,2025-052AD,2026-06-03T05:47:26.866752,15.31447810,.0006417,97.3950,49.5986,171.9085,188.2261,0,U,63237,999,6789,.59759E-3,.18105E-3,0
TEVEL2-7,2025-052AE,2026-06-03T14:33:06.588864,15.31176236,.00064176,97.3955,49.8841,171.2563,188.8791,0,U,63238,999,6794,.58397265E-3,.17541E-3,0
TEVEL2-8,2025-052AF,2026-06-03T22:35:19.149504,15.31169698,.00064727,97.3952,50.1954,170.8239,189.3121,0,U,63239,999,6799,.57066409E-3,.17135E-3,0
INNOSAT 16 (RS92S7),2025-155C,2026-06-03T21:10:19.940736,15.25308307,.00090255,97.4562,122.0547,225.1870,134.8635,0,U,64878,999,7864,.23950023E-3,.5965E-4,0
GEOSCAN 6 (RS92S6),2025-155D,2026-06-03T21:43:35.401440,15.29889348,.00065605,97.4556,123.4091,209.8264,150.2603,0,U,64879,999,7873,.38486033E-3,.11073E-3,0
GEOSCAN 1 (RS92S1),2025-155E,2026-06-03T21:54:25.707456,15.30465921,.00064793,97.4552,123.5533,209.4724,150.6153,0,U,64880,999,7874,.42961709E-3,.12594E-3,0
239ALFEROV (RS61S),2025-155F,2026-06-03T21:37:29.924256,15.32569515,.0006071,97.4554,124.0592,205.8625,154.2315,0,U,64881,999,7877,.47495643E-3,.14878E-3,0
GEOSCAN 2 (RS92S2),2025-155Q,2026-06-03T21:48:43.339680,15.30737747,.00063377,97.4551,123.6966,193.1283,166.9793,0,U,64890,999,7875,.41046715E-3,.1213E-3,0
GEOSCAN 5 (RS92S5),2025-155R,2026-06-03T21:25:39.902880,15.32885654,.00047441,97.4546,124.1833,209.2701,150.8276,0,U,64891,999,7878,.4939476E-3,.15629E-3,0
GEOSCAN 4 (RS92S4),2025-155S,2026-06-03T21:04:46.545600,15.33032368,.00048142,97.4549,124.2133,210.2361,149.8604,0,U,64892,999,7878,.5067726E-3,.16112E-3,0
