KUZGTU 1 (RS47S)        
1 57217U 23091AV  26154.88587536  .00013438  00000+0  47073-3 0  9997
2 57217  97.5066 219.2334 0012161 139.0591 221.1564 15.29537269162346
SONATE-2                
1 59112U 24043Q   26154.33123805  .00043888  00000+0  59231-3 0  9997
2 59112  97.5529 303.8894 0006328 244.1418 115.9184 15.57650064125731
MESAT1                  
1 60209U 24125G   26154.65705358  .00055298  00000+0  63848-3 0  9998
2 60209  97.2307  11.8448 0008297 258.2487 101.7841 15.61704825107453
OOV-CUBE (TUBSAT-30)    
1 60240U 24128F   26154.88050213  .00003041  00000+0  23717-3 0  9994
2 60240  61.9958 271.9701 0046281 130.8013 229.7107 15.02709877104117
COLIBRI-S (RS67S)       
1 61746U 24199M   26154.87016383  .00024469  00000+0  48280-3 0  9992
2 61746  97.3007  28.6073 0007204 340.1434  19.9534 15.47143629135350
HORS 3 (RS81S)          
1 61753U 24199U   26154.89336118  .00038586  00000+0  59574-3 0  9996
2 61753  97.2992  30.4775 0005049 350.5494   9.5664 15.54019002135495
HORS 4 (RS82S)          
1 61754U 24199V   26154.89269937  .00051774  00000+0  67890-3 0  9995
2 61754  97.2939  31.5959 0003816 343.8970  16.2164 15.58399703135579
ARCTICSAT 1 (RS74S)     
1 61762U 24199AD  26154.91856586  .00679456  21353-3  12938-2 0  9992
2 61762  97.2855  38.0641 0005643 196.6426 163.4669 16.00664697135991
SIT-2086                
1 61764U 24199AF  26154.91990826  .00037370  00000+0  61764-3 0  9997
2 61764  97.2950  31.0271 0005015 324.4984  35.5935 15.52130042132376
HYPERVIEW 1G (RS66S)    
1 61772U 24199AP  26154.90361012  .00130144  00000+0  96823-3 0  9991
2 61772  97.2897  33.9846 0002385 329.2087  30.9037 15.72414696132585
ALTAIR (RS65S)          
1 61779U 24199AW  26154.89497814  .00010512  00000+0  29431-3 0  9993
2 61779  97.3039  24.3350 0012537   2.7736 357.3576 15.36741152135070
ASRTU-1 (AO-123)        
1 61781U 24199AY  26154.93666931  .00008221  00000+0  24011-3 0  9992
2 61781  97.3011  23.7277 0013765   4.2985 355.8375 15.35473924131895
SAMSAT-IONOSPHERE (RS7*)
1 61784U 24199BB  26154.88470668  .00049731  00000+0  70162-3 0  9998
2 61784  97.2960  30.4699 0006948 343.4515  16.6512 15.56420111135493
RTU MIREA 1 (RS51S)     
1 61785U 24199BC  26154.93743745  .00063573  00000+0  79500-3 0  9999
2 61785  97.2948  31.2900 0006302 339.3257  20.7743 15.59597197132407
TEVEL2-4                
1 63213U 25052D   26153.24759932  .00019833  00000+0  60334-3 0  9999
2 63213  97.3927  49.6197 0004090 133.0862 227.0724 15.34050425 67822
TEVEL2-5                
1 63214U 25052E   26154.63639037  .00019992  00000+0  61020-3 0  9996
2 63214  97.3916  50.9614 0004038 130.1667 229.9930 15.33944349 68033
TEVEL2-6                
1 63215U 25052F   26154.64839894  .00020133  00000+0  61519-3 0  9993
2 63215  97.3918  50.9581 0004181 130.1242 230.0368 15.33906822 68039
TEVEL2-1                
1 63217U 25052H   26153.69393788  .00019888  00000+0  61840-3 0  9998
2 63217  97.3886  49.6443 0003899 141.0246 219.1278 15.33355434 67873
TEVEL2-3                
1 63218U 25052J   26154.21113612  .00019661  00000+0  61001-3 0  9992
2 63218  97.3892  50.1814 0003877 141.5958 218.5561 15.33427572 67951
TEVEL2-2                
1 63219U 25052K   26154.60793548  .00019980  00000+0  62041-3 0  9997
2 63219  97.3889  50.5598 0003814 141.3336 218.8180 15.33398071 68019
TEVEL2-9                
1 63237U 25052AD  26154.24128318  .00018105  00000+0  59759-3 0  9994
2 63237  97.3950  49.5986 0006417 171.9085 188.2261 15.31447810 67898
TEVEL2-7                
1 63238U 25052AE  26154.60632626  .00017541  00000+0  58397-3 0  9997
2 63238  97.3955  49.8841 0006417 171.2563 188.8791 15.31176236 67942
TEVEL2-8                
1 63239U 25052AF  26154.94119386  .00017135  00000+0  57066-3 0  9999
2 63239  97.3952  50.1954 0006472 170.8239 189.3121 15.31169698 67998
INNOSAT 16 (RS92S7)     
1 64878U 25155C   26154.88217524  .00005965  00000+0  23950-3 0  9992
2 64878  97.4562 122.0547 0009025 225.1870 134.8635 15.25308307 78649
GEOSCAN 6 (RS92S6)      
1 64879U 25155D   26154.90527085  .00011073  00000+0  38486-3 0  9999
2 64879  97.4556 123.4091 0006560 209.8264 150.2603 15.29889348 78739
GEOSCAN 1 (RS92S1)      
1 64880U 25155E   26154.91279754  .00012594  00000+0  42962-3 0  9992
2 64880  97.4552 123.5533 0006479 209.4724 150.6153 15.30465921 78749
239ALFEROV (RS61S)      
1 64881U 25155F   26154.90104079  .00014878  00000+0  47496-3 0  9993
2 64881  97.4554 124.0592 0006071 205.8625 154.2315 15.32569515 78770
GEOSCAN 2 (RS92S2)      
1 64890U 25155Q   26154.90883495  .00012130  00000+0  41047-3 0  9994
2 64890  97.4551 123.6966 0006337 193.1283 166.9793 15.30737747 78751
GEOSCAN 5 (RS92S5)      
1 64891U 25155R   26154.89282295  .00015629  00000+0  49395-3 0  9994
2 64891  97.4546 124.1833 0004744 209.2701 150.8276 15.32885654 78783
GEOSCAN 4 (RS92S4)      
1 64892U 25155S   26154.87831650  .00016112  00000+0  50677-3 0  9991
2 64892  97.4549 124.2133 0004814 210.2361 149.8604 15.33032368 78783
